OBJECT_NAME,OBJECT_ID,EPOCH,MEAN_MOTION,ECCENTRICITY,INCLINATION,RA_OF_ASC_NODE,ARG_OF_PERICENTER,MEAN_ANOMALY,EPHEMERIS_TYPE,CLASSIFICATION_TYPE,NORAD_CAT_ID,ELEMENT_SET_NO,REV_AT_EPOCH,BSTAR,MEAN_MOTION_DOT,MEAN_MOTION_DDOT
ONEWEB-0597,2022-166X,2026-06-09T22:40:57.876384,13.21826120,.00020516,87.9253,245.4285,95.9370,264.1998,0,U,54663,999,17058,.14586997E-4,.19E-6,0
ONEWEB-0600,2022-166Y,2026-06-09T22:14:17.084832,13.21825071,.00018309,87.9253,245.4234,95.6127,264.5215,0,U,54664,999,17055,-.43090293E-3,-.165E-5,0
ONEWEB-0601,2022-166Z,2026-06-10T03:29:12.026112,13.21825164,.00021648,87.9253,245.3960,93.6163,266.5219,0,U,54665,999,17077,-.90963481E-4,-.25E-6,0
ONEWEB-0602,2022-166AA,2026-06-10T04:28:33.099744,13.21825895,.0001814,87.9254,245.3939,93.6586,266.4755,0,U,54666,999,17062,.16677236E-3,.82E-6,0
ONEWEB-0603,2022-166AB,2026-06-10T04:37:02.620416,13.21826444,.00020224,87.9263,245.3490,96.4829,263.6535,0,U,54667,999,17055,.12494243E-3,.65E-6,0
ONEWEB-0604,2022-166AC,2026-06-09T22:53:04.028640,13.21827506,.00019947,87.9265,245.4122,101.6466,258.4891,0,U,54668,999,17048,-.164718E-5,.12E-6,0
ONEWEB-0605,2022-166AD,2026-06-10T04:10:24.124512,13.21826245,.00026262,87.9256,245.3821,94.1135,266.0299,0,U,54669,999,17058,.17554416E-3,.86E-6,0
ONEWEB-0606,2022-166AE,2026-06-10T04:41:53.171520,13.21826037,.00019627,87.9255,245.3905,104.4081,255.7271,0,U,54670,999,17064,.89585992E-4,.5E-6,0
ONEWEB-0607,2022-166AF,2026-06-09T22:26:23.878176,13.21824328,.00019971,87.9259,245.4127,94.9053,265.2309,0,U,54671,999,17058,-.17585109E-3,-.6E-6,0
ONEWEB-0608,2022-166AG,2026-06-10T04:03:06.941376,13.21827447,.0002381,87.9267,245.3625,89.3335,270.8072,0,U,54672,999,17062,-.810004E-6,.13E-6,0
ONEWEB-0610,2022-166AH,2026-06-09T23:56:01.332960,13.21824920,.00022335,87.9254,245.4118,83.4606,276.6782,0,U,54673,999,17050,-.59696321E-3,-.234E-5,0
ONEWEB-0611,2022-166AJ,2026-06-09T23:46:20.288640,13.21827339,.000201,87.9253,245.4090,102.9229,257.2129,0,U,54674,999,17049,-.19721406E-3,-.68E-6,0
ONEWEB-0612,2022-166AK,2026-06-09T22:16:43.665888,13.21824291,.00020959,87.9264,245.4161,95.4677,264.6696,0,U,54675,999,17047,.49714574E-4,.34E-6,0
ONEWEB-0615,2022-166AL,2026-06-09T23:36:40.733856,13.21825805,.00018097,87.9258,245.4205,104.7273,255.4062,0,U,54676,999,17049,-.80850205E-4,-.2E-6,0
ONEWEB-0655,2022-166AM,2026-06-10T04:29:46.464576,13.21826500,.00018605,87.9256,245.3812,93.3342,266.8005,0,U,54677,999,17051,.13216062E-3,.68E-6,0
ONEWEB-0659,2022-166AN,2026-06-09T23:26:59.377632,13.21825822,.00020592,87.9254,245.4230,102.1952,257.9413,0,U,54678,999,17057,.69168466E-3,.299E-5,0
ONEWEB-0685,2022-166AP,2026-06-10T04:54:16.606368,13.21846979,.00020887,87.9253,245.3702,89.7101,270.4273,0,U,54679,999,17049,-.9766369E-5,.9E-7,0
ONEWEB-0712,2022-166AQ,2026-06-10T03:27:47.151072,13.16593724,.00016666,87.9101,230.1729,89.3489,270.7833,0,U,54680,999,17113,-.11062285E-3,-.29E-6,0
ONEWEB-0714,2022-166AR,2026-06-09T23:34:13.066752,13.21823810,.00017266,87.9254,245.4116,96.8516,263.2815,0,U,54681,999,17058,-.1278958E-3,-.4E-6,0
ONEWEB-0532,2023-004A,2026-06-10T06:36:02.040768,13.17648856,.00021933,87.9138,7.2401,89.8267,270.3115,0,U,55140,999,16667,-.39934461E-4,-.3E-7,0
ONEWEB-0533,2023-004B,2026-06-10T01:29:52.181664,13.12442541,.00018839,87.8946,352.0878,82.9268,277.2075,0,U,55141,999,16712,.13487389E-2,.498E-5,0
ONEWEB-0541,2023-004C,2026-06-10T03:54:42.857856,13.11416323,.00018284,87.8900,22.4556,90.0401,270.0937,0,U,55142,999,16502,-.20856874E-3,-.61E-6,0
ONEWEB-0543,2023-004D,2026-06-10T04:23:51.035712,13.18685078,.0001626,87.9157,336.8639,87.9568,272.1750,0,U,55143,999,16877,-.1494749E-3,-.46E-6,0
ONEWEB-0544,2023-004E,2026-06-10T06:03:24.334272,13.18685298,.00016702,87.9157,336.8499,95.8348,264.2975,0,U,55144,999,16878,-.172232E-4,.6E-7,0
ONEWEB-0560,2023-004F,2026-06-10T05:53:41.949888,13.18686465,.00015786,87.9158,336.8405,95.6116,264.5197,0,U,55145,999,16879,-.1698813E-5,.12E-6,0
ONEWEB-0565,2023-004G,2026-06-10T05:43:58.841472,13.18684550,.00019081,87.9149,336.8705,104.1672,255.9672,0,U,55146,999,16878,.394044E-4,.28E-6,0
ONEWEB-0567,2023-004H,2026-06-10T05:34:16.542624,13.18685193,.00017691,87.9158,336.8554,103.4742,256.6588,0,U,55147,999,16878,.32795095E-4,.26E-6,0
ONEWEB-0569,2023-004J,2026-06-09T23:59:41.075808,13.13469073,.00012765,87.8958,321.6504,123.2189,236.9063,0,U,55148,999,16923,-.53088741E-3,-.181E-5,0
ONEWEB-0570,2023-004K,2026-06-10T05:22:06.982752,13.18684565,.00022267,87.9155,336.8549,96.6935,263.4451,0,U,55149,999,16877,.76210689E-4,.43E-6,0
ONEWEB-0571,2023-004L,2026-06-10T05:12:25.770816,13.18683120,.00019501,87.9154,336.8556,130.3270,229.8033,0,U,55150,999,16878,.21874554E-2,.875E-5,0
