ONEWEB-0597             
1 54663U 22166X   26160.94511431  .00000019  00000+0  14587-4 0  9992
2 54663  87.9253 245.4285 0002051  95.9370 264.1998 13.21826120170587
ONEWEB-0600             
1 54664U 22166Y   26160.92658663 -.00000165  00000+0 -43090-3 0  9994
2 54664  87.9253 245.4234 0001830  95.6127 264.5215 13.21825071170550
ONEWEB-0601             
1 54665U 22166Z   26161.14527808 -.00000025  00000+0 -90963-4 0  9993
2 54665  87.9253 245.3960 0002164  93.6163 266.5219 13.21825164170778
ONEWEB-0602             
1 54666U 22166AA  26161.18649421  .00000082  00000+0  16677-3 0  9994
2 54666  87.9254 245.3939 0001814  93.6586 266.4755 13.21825895170625
ONEWEB-0603             
1 54667U 22166AB  26161.19239144  .00000065  00000+0  12494-3 0  9997
2 54667  87.9263 245.3490 0002022  96.4829 263.6535 13.21826444170559
ONEWEB-0604             
1 54668U 22166AC  26160.95351885  .00000012  00000+0 -16472-5 0  9993
2 54668  87.9265 245.4122 0001994 101.6466 258.4891 13.21827506170487
ONEWEB-0605             
1 54669U 22166AD  26161.17389033  .00000086  00000+0  17554-3 0  9995
2 54669  87.9256 245.3821 0002626  94.1135 266.0299 13.21826245170582
ONEWEB-0606             
1 54670U 22166AE  26161.19575430  .00000050  00000+0  89586-4 0  9993
2 54670  87.9255 245.3905 0001962 104.4081 255.7271 13.21826037170644
ONEWEB-0607             
1 54671U 22166AF  26160.93499859 -.00000060  00000+0 -17585-3 0  9997
2 54671  87.9259 245.4127 0001997  94.9053 265.2309 13.21824328170588
ONEWEB-0608             
1 54672U 22166AG  26161.16883034  .00000013  00000+0 -81000-6 0  9999
2 54672  87.9267 245.3625 0002381  89.3335 270.8072 13.21827447170628
ONEWEB-0610             
1 54673U 22166AH  26160.99723765 -.00000234  00000+0 -59696-3 0  9993
2 54673  87.9254 245.4118 0002233  83.4606 276.6782 13.21824920170507
ONEWEB-0611             
1 54674U 22166AJ  26160.99051260 -.00000068  00000+0 -19721-3 0  9998
2 54674  87.9253 245.4090 0002010 102.9229 257.2129 13.21827339170492
ONEWEB-0612             
1 54675U 22166AK  26160.92828317  .00000034  00000+0  49715-4 0  9995
2 54675  87.9264 245.4161 0002095  95.4677 264.6696 13.21824291170473
ONEWEB-0615             
1 54676U 22166AL  26160.98380479 -.00000020  00000+0 -80850-4 0  9996
2 54676  87.9258 245.4205 0001809 104.7273 255.4062 13.21825805170493
ONEWEB-0655             
1 54677U 22166AM  26161.18734334  .00000068  00000+0  13216-3 0  9994
2 54677  87.9256 245.3812 0001860  93.3342 266.8005 13.21826500170511
ONEWEB-0659             
1 54678U 22166AN  26160.97707613  .00000299  00000+0  69168-3 0  9994
2 54678  87.9254 245.4230 0002059 102.1952 257.9413 13.21825822170578
ONEWEB-0685             
1 54679U 22166AP  26161.20435887  .00000009  00000+0 -97664-5 0  9997
2 54679  87.9253 245.3702 0002088  89.7101 270.4273 13.21846979170490
ONEWEB-0712             
1 54680U 22166AQ  26161.14429573 -.00000029  00000+0 -11062-3 0  9996
2 54680  87.9101 230.1729 0001666  89.3489 270.7833 13.16593724171139
ONEWEB-0714             
1 54681U 22166AR  26160.98209568 -.00000040  00000+0 -12790-3 0  9990
2 54681  87.9254 245.4116 0001726  96.8516 263.2815 13.21823810170582
ONEWEB-0532             
1 55140U 23004A   26161.27502362 -.00000003  00000+0 -39934-4 0  9993
2 55140  87.9138   7.2401 0002193  89.8267 270.3115 13.17648856166676
ONEWEB-0533             
1 55141U 23004B   26161.06240951  .00000498  00000+0  13487-2 0  9993
2 55141  87.8946 352.0878 0001883  82.9268 277.2075 13.12442541167122
ONEWEB-0541             
1 55142U 23004C   26161.16299604 -.00000061  00000+0 -20857-3 0  9992
2 55142  87.8900  22.4556 0001828  90.0401 270.0937 13.11416323165025
ONEWEB-0543             
1 55143U 23004D   26161.18322958 -.00000046  00000+0 -14947-3 0  9990
2 55143  87.9157 336.8639 0001626  87.9568 272.1750 13.18685078168773
ONEWEB-0544             
1 55144U 23004E   26161.25236498  .00000006  00000+0 -17223-4 0  9998
2 55144  87.9157 336.8499 0001670  95.8348 264.2975 13.18685298168787
ONEWEB-0560             
1 55145U 23004F   26161.24562442  .00000012  00000+0 -16988-5 0  9994
2 55145  87.9158 336.8405 0001578  95.6116 264.5197 13.18686465168791
ONEWEB-0565             
1 55146U 23004G   26161.23887548  .00000028  00000+0  39404-4 0  9994
2 55146  87.9149 336.8705 0001908 104.1672 255.9672 13.18684550168789
ONEWEB-0567             
1 55147U 23004H   26161.23213591  .00000026  00000+0  32795-4 0  9990
2 55147  87.9158 336.8554 0001769 103.4742 256.6588 13.18685193168785
ONEWEB-0569             
1 55148U 23004J   26160.99978097 -.00000181  00000+0 -53089-3 0  9994
2 55148  87.8958 321.6504 0001276 123.2189 236.9063 13.13469073169230
ONEWEB-0570             
1 55149U 23004K   26161.22369193  .00000043  00000+0  76211-4 0  9991
2 55149  87.9155 336.8549 0002226  96.6935 263.4451 13.18684565168770
ONEWEB-0571             
1 55150U 23004L   26161.21696494  .00000875  00000+0  21875-2 0  9996
2 55150  87.9154 336.8556 0001950 130.3270 229.8033 13.18683120168789
